STARLINK-31527          
1 59018U 24036W   26068.31629496 -.00001743  00000+0 -46739-4 0  9999
2 59018  53.1588  80.0367 0001284  85.6358 274.4789 15.30193496115266
KUIPER-00222            
1 67782U 26030U   26068.67636257  .00055223  00000+0  17317-2 0  9992
2 67782  51.8817 219.7147 0012800  40.1845 320.0084 15.32445377  5087
